{"type": "FeatureCollection", "features": [ {"type": "Feature", "properties": {"norad_id": 31477, "name": "FENGYUN 1C DEB", "group": "fengyun-1c-debris", "lat": 34.69597275294681, "lon": 166.48591915163738, "alt_km": 928.5735316329892, "timestamp": "2025-12-16T15:45:51.328984+00:00", "meta": {"OBJECT_NAME": "FENGYUN 1C DEB", "OBJECT_ID": "1999-025BVR", "EPOCH": "2025-12-15T09:59:07.960704", "MEAN_MOTION": 14.02925283, "ECCENTRICITY": 0.01100644, "INCLINATION": 98.8857, "RA_OF_ASC_NODE": 339.0571, "ARG_OF_PERICENTER": 21.4481, "MEAN_ANOMALY": 339.1246, "EPHEMERIS_TYPE": 0, "CLASSIFICATION_TYPE": "U", "NORAD_CAT_ID": 31477, "ELEMENT_SET_NO": 999, "REV_AT_EPOCH": 95441, "BSTAR": 0.00033762946, "MEAN_MOTION_DOT": 5.09e-06, "MEAN_MOTION_DDOT": 0}, "tle": {"line1": "1 31477U 99025BVR 25349.41606436  .00000509  00000+0  33763-3 0  9998", "line2": "2 31477  98.8857 339.0571 0110064  21.4481 339.1246 14.02925283954416"}}, "geometry": {"type": "Point", "coordinates": [166.48591915163738, 34.69597275294681]}}, {"type": "Feature", "properties": {"norad_id": 31480, "name": "FENGYUN 1C DEB", "group": "fengyun-1c-debris", "lat": -10.820848595257957, "lon": -156.9673663049646, "alt_km": 1118.1687405773318, "timestamp": "2025-12-16T15:45:51.328996+00:00", "meta": {"OBJECT_NAME": "FENGYUN 1C DEB", "OBJECT_ID": "1999-025BVU", "EPOCH": "2025-12-15T20:48:54.847008", "MEAN_MOTION": 13.89960525, "ECCENTRICITY": 0.03444903, "INCLINATION": 98.3375, "RA_OF_ASC_NODE": 200.717, "ARG_OF_PERICENTER": 212.672, "MEAN_ANOMALY": 145.2709, "EPHEMERIS_TYPE": 0, "CLASSIFICATION_TYPE": "U", "NORAD_CAT_ID": 31480, "ELEMENT_SET_NO": 999, "REV_AT_EPOCH": 93439, "BSTAR": 0.0022104513, "MEAN_MOTION_DOT": 4.359e-05, "MEAN_MOTION_DDOT": 0}, "tle": {"line1": "1 31480U 99025BVU 25349.86730147  .00004359  00000+0  22105-2 0  9992", "line2": "2 31480  98.3375 200.7170 0344490 212.6720 145.2709 13.89960525934398"}}, "geometry": {"type": "Point", "coordinates": [-156.9673663049646, -10.820848595257957]}}, {"type": "Feature", "properties": {"norad_id": 31482, "name": "FENGYUN 1C DEB", "group": "fengyun-1c-debris", "lat": -21.579248840366123, "lon": -2.2526519555681324, "alt_km": 753.6459575199033, "timestamp": "2025-12-16T15:45:51.329006+00:00", "meta": {"OBJECT_NAME": "FENGYUN 1C DEB", "OBJECT_ID": "1999-025BVW", "EPOCH": "2025-12-15T18:57:51.368832", "MEAN_MOTION": 14.35671313, "ECCENTRICITY": 0.0088739, "INCLINATION": 98.3824, "RA_OF_ASC_NODE": 353.5617, "ARG_OF_PERICENTER": 273.0755, "MEAN_ANOMALY": 267.5644, "EPHEMERIS_TYPE": 0, "CLASSIFICATION_TYPE": "U", "NORAD_CAT_ID": 31482, "ELEMENT_SET_NO": 999, "REV_AT_EPOCH": 97173, "BSTAR": 0.00057573933, "MEAN_MOTION_DOT": 1.694e-05, "MEAN_MOTION_DDOT": 0}, "tle": {"line1": "1 31482U 99025BVW 25349.79017788  .00001694  00000+0  57574-3 0  9993", "line2": "2 31482  98.3824 353.5617 0088739 273.0755 267.5644 14.35671313971733"}}, "geometry": {"type": "Point", "coordinates": [-2.2526519555681324, -21.579248840366123]}}, {"type": "Feature", "properties": {"norad_id": 31483, "name": "FENGYUN 1C DEB", "group": "fengyun-1c-debris", "lat": -77.03598258661782, "lon": 17.02661540517496, "alt_km": 805.0652640488124, "timestamp": "2025-12-16T15:45:51.329016+00:00", "meta": {"OBJECT_NAME": "FENGYUN 1C DEB", "OBJECT_ID": "1999-025BVX", "EPOCH": "2025-12-15T08:40:46.356096", "MEAN_MOTION": 14.1606861, "ECCENTRICITY": 0.01184149, "INCLINATION": 102.5021, "RA_OF_ASC_NODE": 300.6787, "ARG_OF_PERICENTER": 214.5156, "MEAN_ANOMALY": 298.1969, "EPHEMERIS_TYPE": 0, "CLASSIFICATION_TYPE": "U", "NORAD_CAT_ID": 31483, "ELEMENT_SET_NO": 999, "REV_AT_EPOCH": 94743, "BSTAR": 0.0019127967, "MEAN_MOTION_DOT": 3.971e-05, "MEAN_MOTION_DDOT": 0}, "tle": {"line1": "1 31483U 99025BVX 25349.36164764  .00003971  00000+0  19128-2 0  9996", "line2": "2 31483 102.5021 300.6787 0118414 214.5156 298.1969 14.16068610947430"}}, "geometry": {"type": "Point", "coordinates": [17.02661540517496, -77.03598258661782]}}, {"type": "Feature", "properties": {"norad_id": 31484, "name": "FENGYUN 1C DEB", "group": "fengyun-1c-debris", "lat": 57.44947798397406, "lon": -90.5219557248431, "alt_km": 709.2178626204295, "timestamp": "2025-12-16T15:45:51.329027+00:00", "meta": {"OBJECT_NAME": "FENGYUN 1C DEB", "OBJECT_ID": "1999-025BVY", "EPOCH": "2025-12-12T13:49:03.741600", "MEAN_MOTION": 14.50402466, "ECCENTRICITY": 0.00829237, "INCLINATION": 101.8042, "RA_OF_ASC_NODE": 282.9003, "ARG_OF_PERICENTER": 152.4488, "MEAN_ANOMALY": 208.1125, "EPHEMERIS_TYPE": 0, "CLASSIFICATION_TYPE": "U", "NORAD_CAT_ID": 31484, "ELEMENT_SET_NO": 999, "REV_AT_EPOCH": 64235, "BSTAR": 0.0066347373, "MEAN_MOTION_DOT": 0.00027123, "MEAN_MOTION_DDOT": 0}, "tle": {"line1": "1 31484U 99025BVY 25346.57573775  .00027123  00000+0  66347-2 0  9993", "line2": "2 31484 101.8042 282.9003 0082923 152.4488 208.1125 14.50402466642359"}}, "geometry": {"type": "Point", "coordinates": [-90.5219557248431, 57.44947798397406]}}, {"type": "Feature", "properties": {"norad_id": 31485, "name": "FENGYUN 1C DEB", "group": "fengyun-1c-debris", "lat": 39.36005386766787, "lon": 168.21486114815517, "alt_km": 1091.8934810858855, "timestamp": "2025-12-16T15:45:51.329037+00:00", "meta": {"OBJECT_NAME": "FENGYUN 1C DEB", "OBJECT_ID": "1999-025BVZ", "EPOCH": "2025-12-14T11:36:33.254208", "MEAN_MOTION": 13.40054858, "ECCENTRICITY": 0.04460457, "INCLINATION": 102.7182, "RA_OF_ASC_NODE": 176.1623, "ARG_OF_PERICENTER": 315.1545, "MEAN_ANOMALY": 41.4324, "EPHEMERIS_TYPE": 0, "CLASSIFICATION_TYPE": "U", "NORAD_CAT_ID": 31485, "ELEMENT_SET_NO": 999, "REV_AT_EPOCH": 90468, "BSTAR": 0.0029738021, "MEAN_MOTION_DOT": 2.837e-05, "MEAN_MOTION_DDOT": 0}, "tle": {"line1": "1 31485U 99025BVZ 25348.48371822  .00002837  00000+0  29738-2 0  9993", "line2": "2 31485 102.7182 176.1623 0446045 315.1545  41.4324 13.40054858904680"}}, "geometry": {"type": "Point", "coordinates": [168.21486114815517, 39.36005386766787]}}, {"type": "Feature", "properties": {"norad_id": 31487, "name": "FENGYUN 1C DEB", "group": "fengyun-1c-debris", "lat": -62.75476926636089, "lon": -44.84103783345036, "alt_km": 853.3277121573956, "timestamp": "2025-12-16T15:45:51.329047+00:00", "meta": {"OBJECT_NAME": "FENGYUN 1C DEB", "OBJECT_ID": "1999-025BWB", "EPOCH": "2025-12-15T18:02:38.713344", "MEAN_MOTION": 13.97744483, "ECCENTRICITY": 0.0120695, "INCLINATION": 102.4127, "RA_OF_ASC_NODE": 159.2616, "ARG_OF_PERICENTER": 299.2391, "MEAN_ANOMALY": 75.6318, "EPHEMERIS_TYPE": 0, "CLASSIFICATION_TYPE": "U", "NORAD_CAT_ID": 31487, "ELEMENT_SET_NO": 999, "REV_AT_EPOCH": 94454, "BSTAR": 0.0013276947, "MEAN_MOTION_DOT": 1.924e-05, "MEAN_MOTION_DDOT": 0}, "tle": {"line1": "1 31487U 99025BWB 25349.75183696  .00001924  00000+0  13277-2 0  9993", "line2": "2 31487 102.4127 159.2616 0120695 299.2391  75.6318 13.97744483944546"}}, "geometry": {"type": "Point", "coordinates": [-44.84103783345036, -62.75476926636089]}}, {"type": "Feature", "properties": {"norad_id": 31491, "name": "FENGYUN 1C DEB", "group": "fengyun-1c-debris", "lat": 1.3905149340124465, "lon": -100.78582538706908, "alt_km": 845.9586239326736, "timestamp": "2025-12-16T15:45:51.329057+00:00", "meta": {"OBJECT_NAME": "FENGYUN 1C DEB", "OBJECT_ID": "1999-025BWE", "EPOCH": "2025-12-13T04:44:11.383872", "MEAN_MOTION": 14.17269112, "ECCENTRICITY": 0.00518484, "INCLINATION": 99.3043, "RA_OF_ASC_NODE": 255.8234, "ARG_OF_PERICENTER": 267.3751, "MEAN_ANOMALY": 92.1487, "EPHEMERIS_TYPE": 0, "CLASSIFICATION_TYPE": "U", "NORAD_CAT_ID": 31491, "ELEMENT_SET_NO": 999, "REV_AT_EPOCH": 63734, "BSTAR": 0.0029952157, "MEAN_MOTION_DOT": 6.086e-05, "MEAN_MOTION_DDOT": 0}, "tle": {"line1": "1 31491U 99025BWE 25347.19735398  .00006086  00000+0  29952-2 0  9997", "line2": "2 31491  99.3043 255.8234 0051848 267.3751  92.1487 14.17269112637342"}}, "geometry": {"type": "Point", "coordinates": [-100.78582538706908, 1.3905149340124465]}}, {"type": "Feature", "properties": {"norad_id": 31492, "name": "FENGYUN 1C DEB", "group": "fengyun-1c-debris", "lat": -70.64858964217635, "lon": -176.63004425301438, "alt_km": 648.7257508983575, "timestamp": "2025-12-16T15:45:51.329067+00:00", "meta": {"OBJECT_NAME": "FENGYUN 1C DEB", "OBJECT_ID": "1999-025BWF", "EPOCH": "2025-12-13T09:43:40.259712", "MEAN_MOTION": 14.70813595, "ECCENTRICITY": 0.00645282, "INCLINATION": 98.8565, "RA_OF_ASC_NODE": 153.4808, "ARG_OF_PERICENTER": 6.7668, "MEAN_ANOMALY": 353.4392, "EPHEMERIS_TYPE": 0, "CLASSIFICATION_TYPE": "U", "NORAD_CAT_ID": 31492, "ELEMENT_SET_NO": 999, "REV_AT_EPOCH": 96516, "BSTAR": 0.0056827225, "MEAN_MOTION_DOT": 0.00035971, "MEAN_MOTION_DDOT": 0}, "tle": {"line1": "1 31492U 99025BWF 25347.40532708  .00035971  00000+0  56827-2 0  9998", "line2": "2 31492  98.8565 153.4808 0064528   6.7668 353.4392 14.70813595965168"}}, "geometry": {"type": "Point", "coordinates": [-176.63004425301438, -70.64858964217635]}}, {"type": "Feature", "properties": {"norad_id": 31493, "name": "FENGYUN 1C DEB", "group": "fengyun-1c-debris", "lat": -45.07080882799439, "lon": 106.58768291378232, "alt_km": 882.1183356494512, "timestamp": "2025-12-16T15:45:51.329077+00:00", "meta": {"OBJECT_NAME": "FENGYUN 1C DEB", "OBJECT_ID": "1999-025BWG", "EPOCH": "2025-12-12T02:05:14.361792", "MEAN_MOTION": 13.92967952, "ECCENTRICITY": 0.01169776, "INCLINATION": 100.136, "RA_OF_ASC_NODE": 291.9196, "ARG_OF_PERICENTER": 177.3499, "MEAN_ANOMALY": 182.8302, "EPHEMERIS_TYPE": 0, "CLASSIFICATION_TYPE": "U", "NORAD_CAT_ID": 31493, "ELEMENT_SET_NO": 999, "REV_AT_EPOCH": 59857, "BSTAR": 0.0010865995, "MEAN_MOTION_DOT": 1.441e-05, "MEAN_MOTION_DDOT": 0}, "tle": {"line1": "1 31493U 99025BWG 25346.08697178  .00001441  00000+0  10866-2 0  9993", "line2": "2 31493 100.1360 291.9196 0116977 177.3499 182.8302 13.92967952598572"}}, "geometry": {"type": "Point", "coordinates": [106.58768291378232, -45.07080882799439]}}]}